PELICAN-1               
1 58296U 23174AS  26188.22723064  .00007175  00000+0  54763-4 0  9996
2 58296  97.3953 289.8222 0004749 148.5978 211.5570 15.72538596149317
PELICAN-2               
1 62631U 25009Y   26187.72523016  .00000035  00000+0  28267-5 0  9991
2 62631  97.2272 278.3913 0001801 132.2744 227.8656 15.40647671 82563
PELICAN-3               
1 65315U 25188A   26188.76386119  .00005384  00000+0  13279-3 0  9994
2 65315  97.1979 264.6067 0001705 106.3401 253.8033 15.40959804 48486
PELICAN-4               
1 65316U 25188B   26188.71629786  .00005666  00000+0  13977-3 0  9998
2 65316  97.1993 264.7148 0000857 102.7560 257.3783 15.40926275 48473
PELICAN-5               
1 66667U 25276B   26188.72918240  .00003823  00000+0  12759-3 0  9993
2 66667  97.4126 263.6908 0002493 347.5288  12.5891 15.31671258 33664
PELICAN-6               
1 66703U 25276AP  26188.72464242  .00002776  00000+0  95081-4 0  9998
2 66703  97.3773 263.7458 0002485  54.3219 305.8253 15.31059041 33672
PELICAN-7               
1 69017U 26100AP  26188.18157015  .00001370  00000+0  60535-4 0  9998
2 69017  97.3912  85.7529 0003552  90.4078 269.7566 15.23394443  9856
PELICAN-9               
1 69019U 26100AR  26188.67676786  .00001577  00000+0  72808-4 0  9990
2 69019  97.3812  86.0950 0002768   5.8182 354.3086 15.21665370  9927
