{"fetched_at":"2026-07-08T07:03:36.532Z","source":"https://celestrak.org/NORAD/elements/gp.php?GROUP=planet&FORMAT=JSON","constellation":"pelican","records":[{"OBJECT_NAME":"PELICAN-1","OBJECT_ID":"2023-174AS","EPOCH":"2026-07-07T05:27:12.727296","CLASSIFICATION_TYPE":"U","MEAN_MOTION":15.72538596,"ECCENTRICITY":0.00047499,"INCLINATION":97.3953,"RA_OF_ASC_NODE":289.8222,"ARG_OF_PERICENTER":148.5978,"MEAN_ANOMALY":211.557,"EPHEMERIS_TYPE":0,"NORAD_CAT_ID":58296,"ELEMENT_SET_NO":999,"REV_AT_EPOCH":14931,"BSTAR":0.000054763225,"MEAN_MOTION_DOT":0.00007175,"MEAN_MOTION_DDOT":0},{"OBJECT_NAME":"PELICAN-2","OBJECT_ID":"2025-009Y","EPOCH":"2026-07-06T17:24:19.885824","CLASSIFICATION_TYPE":"U","MEAN_MOTION":15.40647671,"ECCENTRICITY":0.00018016,"INCLINATION":97.2272,"RA_OF_ASC_NODE":278.3913,"ARG_OF_PERICENTER":132.2744,"MEAN_ANOMALY":227.8656,"EPHEMERIS_TYPE":0,"NORAD_CAT_ID":62631,"ELEMENT_SET_NO":999,"REV_AT_EPOCH":8256,"BSTAR":0.000002826696,"MEAN_MOTION_DOT":3.5e-7,"MEAN_MOTION_DDOT":0},{"OBJECT_NAME":"PELICAN-3","OBJECT_ID":"2025-188A","EPOCH":"2026-07-07T18:19:57.606816","CLASSIFICATION_TYPE":"U","MEAN_MOTION":15.40959804,"ECCENTRICITY":0.0001705,"INCLINATION":97.1979,"RA_OF_ASC_NODE":264.6067,"ARG_OF_PERICENTER":106.3401,"MEAN_ANOMALY":253.8033,"EPHEMERIS_TYPE":0,"NORAD_CAT_ID":65315,"ELEMENT_SET_NO":999,"REV_AT_EPOCH":4848,"BSTAR":0.00013279,"MEAN_MOTION_DOT":0.00005384,"MEAN_MOTION_DDOT":0},{"OBJECT_NAME":"PELICAN-4","OBJECT_ID":"2025-188B","EPOCH":"2026-07-07T17:11:28.135104","CLASSIFICATION_TYPE":"U","MEAN_MOTION":15.40926275,"ECCENTRICITY":0.0000857,"INCLINATION":97.1993,"RA_OF_ASC_NODE":264.7148,"ARG_OF_PERICENTER":102.756,"MEAN_ANOMALY":257.3783,"EPHEMERIS_TYPE":0,"NORAD_CAT_ID":65316,"ELEMENT_SET_NO":999,"REV_AT_EPOCH":4847,"BSTAR":0.00013977,"MEAN_MOTION_DOT":0.00005666,"MEAN_MOTION_DDOT":0},{"OBJECT_NAME":"PELICAN-5","OBJECT_ID":"2025-276B","EPOCH":"2026-07-07T17:30:01.359360","CLASSIFICATION_TYPE":"U","MEAN_MOTION":15.31671258,"ECCENTRICITY":0.0002493,"INCLINATION":97.4126,"RA_OF_ASC_NODE":263.6908,"ARG_OF_PERICENTER":347.5288,"MEAN_ANOMALY":12.5891,"EPHEMERIS_TYPE":0,"NORAD_CAT_ID":66667,"ELEMENT_SET_NO":999,"REV_AT_EPOCH":3366,"BSTAR":0.00012759,"MEAN_MOTION_DOT":0.00003823,"MEAN_MOTION_DDOT":0},{"OBJECT_NAME":"PELICAN-6","OBJECT_ID":"2025-276AP","EPOCH":"2026-07-07T17:23:29.105088","CLASSIFICATION_TYPE":"U","MEAN_MOTION":15.31059041,"ECCENTRICITY":0.0002485,"INCLINATION":97.3773,"RA_OF_ASC_NODE":263.7458,"ARG_OF_PERICENTER":54.3219,"MEAN_ANOMALY":305.8253,"EPHEMERIS_TYPE":0,"NORAD_CAT_ID":66703,"ELEMENT_SET_NO":999,"REV_AT_EPOCH":3367,"BSTAR":0.000095081,"MEAN_MOTION_DOT":0.00002776,"MEAN_MOTION_DDOT":0},{"OBJECT_NAME":"PELICAN-7","OBJECT_ID":"2026-100AP","EPOCH":"2026-07-07T04:21:27.660960","CLASSIFICATION_TYPE":"U","MEAN_MOTION":15.23394443,"ECCENTRICITY":0.00035525,"INCLINATION":97.3912,"RA_OF_ASC_NODE":85.7529,"ARG_OF_PERICENTER":90.4078,"MEAN_ANOMALY":269.7566,"EPHEMERIS_TYPE":0,"NORAD_CAT_ID":69017,"ELEMENT_SET_NO":999,"REV_AT_EPOCH":985,"BSTAR":0.000060534943,"MEAN_MOTION_DOT":0.0000137,"MEAN_MOTION_DDOT":0},{"OBJECT_NAME":"PELICAN-9","OBJECT_ID":"2026-100AR","EPOCH":"2026-07-07T16:14:32.743104","CLASSIFICATION_TYPE":"U","MEAN_MOTION":15.2166537,"ECCENTRICITY":0.0002768,"INCLINATION":97.3812,"RA_OF_ASC_NODE":86.095,"ARG_OF_PERICENTER":5.8182,"MEAN_ANOMALY":354.3086,"EPHEMERIS_TYPE":0,"NORAD_CAT_ID":69019,"ELEMENT_SET_NO":999,"REV_AT_EPOCH":992,"BSTAR":0.000072808,"MEAN_MOTION_DOT":0.00001577,"MEAN_MOTION_DDOT":0}]}
